[
    {
        "Altitude(m)": 607895.8119197844,
        "Argument of Periapsis(deg)": 0.0,
        "Eccentricity": 0.0,
        "Inclination(deg)": 60.0,
        "Latitude(deg)": 40.99832478932345,
        "Longitude(deg)": -4.9114400298839636,
        "Mean Anomaly(deg)": -229.09089999999998,
        "RAAN(deg)": 305.0,
        "Satellite Name": "Test1 1350",
        "Satellite Number": 1350,
        "Semi-Major Axis(m)": 6980739.136638005,
        "Time(s)": 0
    },
    {
        "Altitude(m)": 607795.1250934302,
        "Argument of Periapsis(deg)": 0.00010418945913296404,
        "Eccentricity": 0.0,
        "Inclination(deg)": 60.0,
        "Latitude(deg)": 40.53064990699933,
        "Longitude(deg)": -4.41484489915212,
        "Mean Anomaly(deg)": -228.47079385453813,
        "RAAN(deg)": 304.99957995086027,
        "Satellite Name": "Test1 1350",
        "Satellite Number": 1350,
        "Semi-Major Axis(m)": 6980739.136638005,
        "Time(s)": 10
    }
]